[{"OBJECT_NAME":"SITRO-AIS 8 (ANOKHIN)","OBJECT_ID":"2023-091AD","EPOCH":"2026-03-09T23:44:40.058592","MEAN_MOTION":15.29359179,"ECCENTRICITY":0.0012509,"INCLINATION":97.5169,"RA_OF_ASC_NODE":133.2823,"ARG_OF_PERICENTER":92.0171,"MEAN_ANOMALY":268.2501,"EPHEMERIS_TYPE":0,"CLASSIFICATION_TYPE":"U","NORAD_CAT_ID":57193,"ELEMENT_SET_NO":999,"REV_AT_EPOCH":14927,"BSTAR":0.00064982524,"MEAN_MOTION_DOT":0.00018494,"MEAN_MOTION_DDOT":0},{"OBJECT_NAME":"STARLINK-32296","OBJECT_ID":"2024-183R","EPOCH":"2026-03-09T11:22:25.830048","MEAN_MOTION":15.30190017,"ECCENTRICITY":0.00010748,"INCLINATION":53.1599,"RA_OF_ASC_NODE":143.1375,"ARG_OF_PERICENTER":85.5353,"MEAN_ANOMALY":274.577,"EPHEMERIS_TYPE":0,"CLASSIFICATION_TYPE":"U","NORAD_CAT_ID":61524,"ELEMENT_SET_NO":999,"REV_AT_EPOCH":7962,"BSTAR":-6.944284e-6,"MEAN_MOTION_DOT":-5.65e-6,"MEAN_MOTION_DDOT":0}]
